stk.v.11.0

# WrittenBy    STK_v11.3.0

BEGIN Ephemeris

NumberOfEphemerisPoints		 5761

ScenarioEpoch		 8 May 2017 03:51:42.766000

# Epoch in JDate format: 2457881.66091164351852
# Epoch in YYDDD format:   17128.16091164351852


InterpolationMethod		 Lagrange

InterpolationSamplesM1		 7

    CentralBody		 Earth
DistanceUnit Meters
CoordinateSystem		 ICRF

# Time of first point: 11 May 2017 03:51:42.766000000 UTCG = 2457884.66091164351852 JDate = 17131.16091164351852 YYDDD

EphemerisTimePosVel		

7.4916000000000000e+05 -2.0450544553551815e+07 3.6875356419516981e+07 -9.9974009722671071e+03 -2.6886579735852915e+03 -1.4913053130862286e+03 -2.2899909245712786e+00
7.4928000000000000e+05 -2.0772396561114486e+07 3.6694990502695903e+07 -1.0271813683360078e+04 -2.6755079257235279e+03 -1.5147741281303404e+03 -2.2835250796790714e+00
7.4940000000000000e+05 -2.1092658261524413e+07 3.6511815266046099e+07 -1.0545439998007507e+04 -2.6621530233584026e+03 -1.5381270114599356e+03 -2.2768844006686306e+00
7.4952000000000000e+05 -2.1411305133389272e+07 3.6325844728753045e+07 -1.0818258966451018e+04 -2.6485942882328259e+03 -1.5613621749013234e+03 -2.2700693953648203e+00
7.4964000000000000e+05 -2.1728312778863285e+07 3.6137093124044433e+07 -1.1090249700672499e+04 -2.6348327576997722e+03 -1.5844778392809017e+03 -2.2630805849405400e+00
7.4976000000000000e+05 -2.2043656925515674e+07 3.5945574898101956e+07 -1.1361391375993486e+04 -2.6208694846430803e+03 -1.6074722345614498e+03 -2.2559185038770067e+00
7.4988000000000000e+05 -2.2357313428189561e+07 3.5751304708956800e+07 -1.1631663232669727e+04 -2.6067055373970643e+03 -1.6303435999777271e+03 -2.2485836999230138e+00
7.5000000000000000e+05 -2.2669258270851143e+07 3.5554297425368927e+07 -1.1901044577480798e+04 -2.5923419996649377e+03 -1.6530901841713646e+03 -2.2410767340531783e+00
7.5012000000000000e+05 -2.2979467568429008e+07 3.5354568125690170e+07 -1.2169514785314645e+04 -2.5777799704360636e+03 -1.6757102453250404e+03 -2.2333981804251706e+00
7.5024000000000000e+05 -2.3287917568643436e+07 3.5152132096711300e+07 -1.2437053300746931e+04 -2.5630205639020282e+03 -1.6982020512959289e+03 -2.2255486263359368e+00
7.5036000000000000e+05 -2.3594584653825596e+07 3.4947004832493134e+07 -1.2703639639615079e+04 -2.5480649093715538e+03 -1.7205638797484121e+03 -2.2175286721769125e+00
7.5048000000000000e+05 -2.3899445342726413e+07 3.4739202033181705e+07 -1.2969253390586868e+04 -2.5329141511842472e+03 -1.7427940182860448e+03 -2.2093389313882357e+00
7.5060000000000000e+05 -2.4202476292315062e+07 3.4528739603807718e+07 -1.3233874216723480e+04 -2.5175694486232005e+03 -1.7648907645827619e+03 -2.2009800304119578e+00
7.5072000000000000e+05 -2.4503654299566865e+07 3.4315633653070264e+07 -1.3497481857036873e+04 -2.5020319758264432e+03 -1.7868524265133194e+03 -2.1924526086442602e+00
7.5084000000000000e+05 -2.4802956303240541e+07 3.4099900492104910e+07 -1.3760056128041366e+04 -2.4863029216972550e+03 -1.8086773222829561e+03 -2.1837573183866752e+00
7.5096000000000000e+05 -2.5100359385644574e+07 3.3881556633236326e+07 -1.4021576925299290e+04 -2.4703834898133473e+03 -1.8303637805562698e+03 -2.1748948247963211e+00
7.5108000000000000e+05 -2.5395840774392642e+07 3.3660618788715467e+07 -1.4282024224960645e+04 -2.4542748983349188e+03 -1.8519101405852959e+03 -2.1658658058351512e+00
7.5120000000000000e+05 -2.5689377844147962e+07 3.3437103869441416e+07 -1.4541378085296563e+04 -2.4379783799115926e+03 -1.8733147523367782e+03 -2.1566709522182199e+00
7.5132000000000000e+05 -2.5980948118356358e+07 3.3211028983668048e+07 -1.4799618648226542e+04 -2.4214951815882409e+03 -1.8945759766186234e+03 -2.1473109673609723e+00
7.5144000000000000e+05 -2.6270529270967994e+07 3.2982411435695533e+07 -1.5056726140839279e+04 -2.4048265647097078e+03 -1.9156921852055295e+03 -2.1377865673255614e+00
7.5156000000000000e+05 -2.6558099128147606e+07 3.2751268724546824e+07 -1.5312680876907001e+04 -2.3879738048244312e+03 -1.9366617609637776e+03 -2.1280984807661931e+00
7.5168000000000000e+05 -2.6843635669973090e+07 3.2517618542629220e+07 -1.5567463258393191e+04 -2.3709381915869776e+03 -1.9574830979751766e+03 -2.1182474488735092e+00
7.5180000000000000e+05 -2.7127117032122333e+07 3.2281478774381116e+07 -1.5821053776953568e+04 -2.3537210286594955e+03 -1.9781546016601553e+03 -2.1082342253180060e+00
7.5192000000000000e+05 -2.7408521507548161e+07 3.2042867494904026e+07 -1.6073433015430228e+04 -2.3363236336120904e+03 -1.9986746888999876e+03 -2.0980595761924978e+00
7.5204000000000000e+05 -2.7687827548141260e+07 3.1801802968579985e+07 -1.6324581649338827e+04 -2.3187473378221353e+03 -2.0190417881581434e+03 -2.0877242799536289e+00
7.5216000000000000e+05 -2.7965013766380951e+07 3.1558303647674456e+07 -1.6574480448348681e+04 -2.3009934863725202e+03 -2.0392543396007577e+03 -2.0772291273624348e+00
7.5228000000000000e+05 -2.8240058936973702e+07 3.1312388170924813e+07 -1.6823110277755677e+04 -2.2830634379488506e+03 -2.0593107952162054e+03 -2.0665749214239626e+00
7.5240000000000000e+05 -2.8512941998479228e+07 3.1064075362114560e+07 -1.7070452099947888e+04 -2.2649585647356007e+03 -2.0792096189337744e+03 -2.0557624773259500e+00
7.5252000000000000e+05 -2.8783642054924078e+07 3.0813384228633337e+07 -1.7316486975863776e+04 -2.2466802523112319e+03 -2.0989492867414274e+03 -2.0447926223765713e+00
7.5264000000000000e+05 -2.9052138377402563e+07 3.0560333960022863e+07 -1.7561196066442841e+04 -2.2282298995422811e+03 -2.1185282868026452e+03 -2.0336661959412550e+00
7.5276000000000000e+05 -2.9318410405664921e+07 3.0304943926508904e+07 -1.7804560634068679e+04 -2.2096089184764301e+03 -2.1379451195723368e+03 -2.0223840493785725e+00
7.5288000000000000e+05 -2.9582437749692582e+07 3.0047233677519403e+07 -1.8046562044004255e+04 -2.1908187342345632e+03 -2.1571982979118170e+03 -2.0109470459752119e+00
7.5300000000000000e+05 -2.9844200191260442e+07 2.9787222940188851e+07 -1.8287181765819329e+04 -2.1718607849018208e+03 -2.1762863472028316e+03 -1.9993560608800334e+00
7.5312000000000000e+05 -3.0103677685485970e+07 2.9524931617849045e+07 -1.8526401374809917e+04 -2.1527365214176548e+03 -2.1952078054606309e+03 -1.9876119810372144e+00
7.5324000000000000e+05 -3.0360850362365093e+07 2.9260379788506333e+07 -1.8764202553409676e+04 -2.1334474074649024e+03 -2.2139612234460756e+03 -1.9757157051184919e+00
7.5336000000000000e+05 -3.0615698528294683e+07 2.8993587703305461e+07 -1.9000567092593094e+04 -2.1139949193578750e+03 -2.2325451647767713e+03 -1.9636681434545040e+00
7.5348000000000000e+05 -3.0868202667581588e+07 2.8724575784980148e+07 -1.9235476893270388e+04 -2.0943805459294808e+03 -2.2509582060372218e+03 -1.9514702179652366e+00
7.5360000000000000e+05 -3.1118343443938024e+07 2.8453364626290493e+07 -1.9468913967674031e+04 -2.0746057884173856e+03 -2.2691989368879917e+03 -1.9391228620895800e+00
7.5372000000000000e+05 -3.1366101701963287e+07 2.8179974988447350e+07 -1.9700860440736724e+04 -2.0546721603492178e+03 -2.2872659601738687e+03 -1.9266270207140035e+00
7.5384000000000000e+05 -3.1611458468611594e+07 2.7904427799523778e+07 -1.9931298551460797e+04 -2.0345811874268327e+03 -2.3051578920310226e+03 -1.9139836501003493e+00
7.5396000000000000e+05 -3.1854394954646017e+07 2.7626744152853709e+07 -2.0160210654278879e+04 -2.0143344074096390e+03 -2.3228733619931445e+03 -1.9011937178127551e+00
7.5408000000000000e+05 -3.2094892556078330e+07 2.7346945305417914e+07 -2.0387579220405732e+04 -1.9939333699969998e+03 -2.3404110130965673e+03 -1.8882582026437080e+00
7.5420000000000000e+05 -3.2332932855594710e+07 2.7065052676217437e+07 -2.0613386839181185e+04 -1.9733796367097157e+03 -2.3577695019843527e+03 -1.8751780945392371e+00
7.5432000000000000e+05 -3.2568497623967145e+07 2.6781087844634596e+07 -2.0837616219404023e+04 -1.9526747807705999e+03 -2.3749474990093372e+03 -1.8619543945232488e+00
7.5444000000000000e+05 -3.2801568821450479e+07 2.6495072548781674e+07 -2.1060250190656752e+04 -1.9318203869841529e+03 -2.3919436883361318e+03 -1.8485881146210139e+00
7.5456000000000000e+05 -3.3032128599164929e+07 2.6207028683837440e+07 -2.1281271704621126e+04 -1.9108180516153484e+03 -2.4087567680420693e+03 -1.8350802777818072e+00
7.5468000000000000e+05 -3.3260159300464045e+07 2.5916978300371628e+07 -2.1500663836384352e+04 -1.8896693822675370e+03 -2.4253854502170834e+03 -1.8214319178007103e+00
7.5480000000000000e+05 -3.3485643462287936e+07 2.5624943602657467e+07 -2.1718409785735847e+04 -1.8683759977594784e+03 -2.4418284610625201e+03 -1.8076440792395818e+00
7.5492000000000000e+05 -3.3708563816501707e+07 2.5330946946972460e+07 -2.1934492878454465e+04 -1.8469395280015124e+03 -2.4580845409888707e+03 -1.7937178173471986e+00
7.5504000000000000e+05 -3.3928903291218944e+07 2.5035010839887451e+07 -2.2148896567586096e+04 -1.8253616138708746e+03 -2.4741524447124170e+03 -1.7796541979785785e+00
7.5516000000000000e+05 -3.4146645012110263e+07 2.4737157936544210e+07 -2.2361604434711546e+04 -1.8036439070861722e+03 -2.4900309413507848e+03 -1.7654542975134877e+00
7.5528000000000000e+05 -3.4361772303696685e+07 2.4437411038921583e+07 -2.2572600191204554e+04 -1.7817880700810229e+03 -2.5057188145173959e+03 -1.7511192027741393e+00
7.5540000000000000e+05 -3.4574268690627798e+07 2.4135793094090380e+07 -2.2781867679479932e+04 -1.7597957758768712e+03 -2.5212148624148117e+03 -1.7366500109420906e+00
7.5552000000000000e+05 -3.4784117898944646e+07 2.3832327192457136e+07 -2.2989390874231642e+04 -1.7376687079549909e+03 -2.5365178979269626e+03 -1.7220478294743438e+00
7.5564000000000000e+05 -3.4991303857327178e+07 2.3527036565996882e+07 -2.3195153883660783e+04 -1.7154085601276811e+03 -2.5516267487102532e+03 -1.7073137760186576e+00
7.5576000000000000e+05 -3.5195810698326200e+07 2.3219944586475015e+07 -2.3399140950693363e+04 -1.6930170364086691e+03 -2.5665402572835392e+03 -1.6924489783280767e+00
7.5588000000000000e+05 -3.5397622759579733e+07 2.2911074763658479e+07 -2.3601336454187764e+04 -1.6704958508827276e+03 -2.5812572811169671e+03 -1.6774545741746829e+00
END Ephemeris
